ORBCOMM FM103           
1 40091U 14040F   24170.59382119  .00000843  00000+0  22426-3 0  9998
2 40091  47.0067 293.0841 0001118  26.9297 333.1646 14.56698242511069
ORBCOMM FM114           
1 41179U 15081A   24170.48870170  .00000732  00000+0  19932-3 0  9994
2 41179  47.0013 202.8340 0000438 149.1583 210.9328 14.56761929451414
ORBCOMM FM119           
1 41180U 15081B   24171.21522987  .00000762  00000+0  20623-3 0  9990
2 41180  47.0007 108.6122 0001301 212.8568 147.2236 14.56677492452772
ORBCOMM FM105           
1 41181U 15081C   24170.48923651  .00000422  00000+0  16642-3 0  9991
2 41181  47.0021  82.5230 0001258 141.7704 218.3265 14.44439857448159
ORBCOMM FM110           
1 41182U 15081D   24170.80904703  .00000665  00000+0  18448-3 0  9990
2 41182  47.0002 200.7314 0002984 292.1897  67.8671 14.56756791451331
ORBCOMM FM118           
1 41183U 15081E   24171.12966662  .00000508  00000+0  14982-3 0  9994
2 41183  47.0026 199.5384 0003047 291.3348  68.7212 14.56744962451566
ORBCOMM FM112           
1 41184U 15081F   24170.78012367  .00000945  00000+0  24695-3 0  9997
2 41184  46.9989 109.8642 0001056 179.2175 180.8711 14.56643874452655
ORBCOMM FM113           
1 41185U 15081G   24170.89456792  .00000992  00000+0  25739-3 0  9996
2 41185  47.0008 109.5986 0001009 207.3022 152.7810 14.56644972452658
